ORBCOMM FM36            
1 25984U 99065E   26061.40845354  .00001383  00000+0  49018-3 0  9994
2 25984  45.0394 306.4122 0002144 147.2177 212.8806 14.38960468371606
ORBCOMM FM35            
1 25985U 99065F   26061.71923656  .00001187  00000+0  43676-3 0  9997
2 25985  45.0401 312.1009 0003443 266.3265  93.7190 14.37854332371982
ORBCOMM FM34            
1 25986U 99065G   26061.06426884  .00000993  00000+0  37379-3 0  9994
2 25986  45.0397 315.7098 0002837 205.4222 154.6488 14.37766617372006
ORBCOMM FM38            
1 33060U 08031A   26061.64915159  .00002504  00000+0  33364-3 0  9991
2 33060  48.4385 162.2872 0003863  74.9274 285.2070 14.82694536953084
ORBCOMM FM41            
1 33061U 08031B   26061.68922609  .00002386  00000+0  32254-3 0  9999
2 33061  48.4422 170.8074 0003191  54.8287  94.8832 14.82230136952565
ORBCOMM FM29            
1 33062U 08031C   26061.62500221  .00002596  00000+0  34717-3 0  9995
2 33062  48.4372 178.5509 0004793  55.8343 317.9070 14.82402460952475
ORBCOMM FM39            
1 33063U 08031D   26061.78434215  .00002362  00000+0  33054-3 0  9996
2 33063  48.4382 205.0478 0005958  24.0572 336.0621 14.80786009952100
ORBCOMM FM37            
1 33064U 08031E   26061.65409653  .00002325  00000+0  32436-3 0  9993
2 33064  48.4378 193.7895 0004417  44.2745 329.2713 14.80979534952346
ORBCOMM FM40            
1 33065U 08031F   26061.70702896  .00003023  00000+0  38859-3 0  9996
2 33065  48.4397 172.9223 0005240  63.6150  80.1385 14.83612807952520
VESSELSAT 1             
1 37840U 11058C   26061.78876337  .00000395  00000+0  70471-4 0  9990
2 37840  19.9630 329.0111 0013730 151.0879 209.0287 14.11418647742888
ORBCOMM FM109           
1 40086U 14040A   26061.52721116  .00000686  00000+0  18180-3 0  9997
2 40086  47.0020 235.7184 0001143 101.2649 258.8365 14.58708802618774
ORBCOMM FM107           
1 40087U 14040B   26061.54224422  .00000864  00000+0  21926-3 0  9998
2 40087  47.0034 236.5016 0000738 351.0867   9.0006 14.58792102618852
ORBCOMM FM106           
1 40088U 14040C   26061.13004031  .00001221  00000+0  23114-3 0  9995
2 40088  47.0609  39.6269 0016280 189.3078 170.7514 14.70278722621426
ORBCOMM FM111           
1 40089U 14040D   26061.58831045  .00003679  00000+0  41414-3 0  9990
2 40089  46.9988 211.6175 0028412 349.4563  10.5736 14.88288660628695
ORBCOMM FM104           
1 40090U 14040E   26061.61117505  .00000637  00000+0  17723-3 0  9991
2 40090  47.0043 272.9253 0016501 305.3480  54.5862 14.57154032618309
ORBCOMM FM103           
1 40091U 14040F   26061.52954058  .00000829  00000+0  21225-3 0  9999
2 40091  47.0039 237.2776 0001296   7.2561 352.8344 14.58695256601818
ORBCOMM FM114           
1 41179U 15081A   26061.54515524  .00000724  00000+0  18992-3 0  9997
2 41179  47.0042 146.1443 0001296  67.9752 292.1272 14.58716063542184
